[
    {
        "Altitude(m)": 604969.0889837256,
        "Argument of Periapsis(deg)": 0.0,
        "Eccentricity": 0.0,
        "Inclination(deg)": 60.0,
        "Latitude(deg)": -0.09253320957791351,
        "Longitude(deg)": 99.97752761245891,
        "Mean Anomaly(deg)": 0.0,
        "RAAN(deg)": 200.0,
        "Satellite Name": "Test1 880",
        "Satellite Number": 880,
        "Semi-Major Axis(m)": 6980739.136638005,
        "Time(s)": 0
    },
    {
        "Altitude(m)": 604900.0293709578,
        "Argument of Periapsis(deg)": 0.00010418945913296404,
        "Eccentricity": 0.0,
        "Inclination(deg)": 60.0,
        "Latitude(deg)": 0.4478927062254606,
        "Longitude(deg)": 100.24565060245284,
        "Mean Anomaly(deg)": 0.6201061454618275,
        "RAAN(deg)": 199.99957995086027,
        "Satellite Name": "Test1 880",
        "Satellite Number": 880,
        "Semi-Major Axis(m)": 6980739.136638005,
        "Time(s)": 10
    }
]